{"type":"FeatureCollection","features":[{"type":"Feature","geometry":{"type":"Point","coordinates":[9.37079,48.71719]},"properties":{"id":"gas_plant:msen0lzvmgcczs7:1","name":"Altbach/Deizisau Gaskraftwerk","infra_type":"gas_plant","status":"preparation","capacity_mw":665,"source_url":"https://www.enbw.com/unternehmen/themen/kohleausstieg/heizkraftwerk-altbach-deizisau/#fuel-switch","description":null,"source_attributes":{"Projektname":"Altbach/Deizisau Gaskraftwerk","Technologie":"CCGT","Kraft-Wärme-Kopplung?":"ja","Geplante Kapazität in Megawatt (MW)":"665","Geplante Inbetriebnahme (Jahr)":"2027","Quelle":"https://www.enbw.com/unternehmen/themen/kohleausstieg/heizkraftwerk-altbach-deizisau/#fuel-switch","Stadt":"Altbach","Unternehmen":"EnBW Energie Baden-Württemberg AG"}}},{"type":"Feature","geometry":{"type":"Point","coordinates":[7.6206,51.63668]},"properties":{"id":"gas_plant:msen0lzvmgcczs7:2","name":"Bergkamen Gaskraftwerk","infra_type":"gas_plant","status":"exploration","capacity_mw":880,"source_url":"https://www.iqony.energy/standortentwicklung/standort-bergkamen/h2-ready-gaskraftwerk-bergkamen","description":null,"source_attributes":{"Projektname":"Bergkamen Gaskraftwerk","Technologie":"CCGT","Kraft-Wärme-Kopplung?":"nein","Geplante Kapazität in Megawatt (MW)":"880","Geplante Inbetriebnahme (Jahr)":"2031","Quelle":"https://www.iqony.energy/standortentwicklung/standort-bergkamen/h2-ready-gaskraftwerk-bergkamen","Stadt":"Bergkamen","Unternehmen":"Iqony GmbH, STEAG GmbH, Asterion Industrial Partners SGEIC SA"}}},{"type":"Feature","geometry":{"type":"Point","coordinates":[7.2371,49.36345]},"properties":{"id":"gas_plant:msen0lzvmgcczs7:3","name":"Bexbach Gaskraftwerk","infra_type":"gas_plant","status":"exploration","capacity_mw":900,"source_url":"https://www.iqony.energy/h2-ready-gaskraftwerke","description":null,"source_attributes":{"Projektname":"Bexbach Gaskraftwerk","Technologie":"unbekannt","Kraft-Wärme-Kopplung?":"unbekannt","Geplante Kapazität in Megawatt (MW)":"900","Geplante Inbetriebnahme (Jahr)":"unbekannt","Quelle":"https://www.iqony.energy/h2-ready-gaskraftwerke","Stadt":"Bexbach","Unternehmen":"Iqony GmbH, STEAG GmbH, Asterion Industrial Partners SGEIC SA"}}},{"type":"Feature","geometry":{"type":"Point","coordinates":[9.9147,53.51808]},"properties":{"id":"gas_plant:msen0lzvmgcczs7:4","name":"Dradenau Gaskraftwerk","infra_type":"gas_plant","status":"preparation","capacity_mw":180,"source_url":"https://www.hamburger-energiewerke.de/energiewende/energiewende-in-hamburg/kohleausstieg/energiepark-hafen","description":null,"source_attributes":{"Projektname":"Dradenau Gaskraftwerk","Technologie":"CCGT","Kraft-Wärme-Kopplung?":"ja","Geplante Kapazität in Megawatt (MW)":"180","Geplante Inbetriebnahme (Jahr)":"2026","Quelle":"https://www.hamburger-energiewerke.de/energiewende/energiewende-in-hamburg/kohleausstieg/energiepark-hafen","Stadt":"Hamburg","Unternehmen":"Hamburger Energiewerke GmbH"}}},{"type":"Feature","geometry":{"type":"Point","coordinates":[7.71619,51.67523]},"properties":{"id":"gas_plant:msen0lzvmgcczs7:5","name":"Gersteinwerk/Werne Gaskraftwerk","infra_type":"gas_plant","status":"exploration","capacity_mw":800,"source_url":"https://www.rwe.com/presse/rwe-generation/2024-05-29-rwe-plant-wasserstofffaehiges-gaskraftwerk-in-werne/","description":null,"source_attributes":{"Projektname":"Gersteinwerk/Werne Gaskraftwerk","Technologie":"CCGT","Kraft-Wärme-Kopplung?":"nein","Geplante Kapazität in Megawatt (MW)":"800","Geplante Inbetriebnahme (Jahr)":"2030","Quelle":"https://www.rwe.com/presse/rwe-generation/2024-05-29-rwe-plant-wasserstofffaehiges-gaskraftwerk-in-werne/","Stadt":"Werne","Unternehmen":"RWE AG"}}},{"type":"Feature","geometry":{"type":"Point","coordinates":[10.4077,48.51244]},"properties":{"id":"gas_plant:msen0lzvmgcczs7:6","name":"Gundremmingen Gaskraftwerk","infra_type":"gas_plant","status":"exploration","capacity_mw":124,"source_url":"https://www.regierung-schwaben.bayern.de/mam/aufgaben/b5/sg_55.1/peaker/14/14.01-01__anlage__guta_uvp-bericht.pdf","description":null,"source_attributes":{"Projektname":"Gundremmingen Gaskraftwerk","Technologie":"ICE","Kraft-Wärme-Kopplung?":"nein","Geplante Kapazität in Megawatt (MW)":"124","Geplante Inbetriebnahme (Jahr)":"2027","Quelle":"https://www.regierung-schwaben.bayern.de/mam/aufgaben/b5/sg_55.1/peaker/14/14.01-01__anlage__guta_uvp-bericht.pdf","Stadt":"Gundremmingen","Unternehmen":"RWE AG"}}},{"type":"Feature","geometry":{"type":"Point","coordinates":[9.20743,49.17528]},"properties":{"id":"gas_plant:msen0lzvmgcczs7:7","name":"Heilbronn Gaskraftwerk","infra_type":"gas_plant","status":"preparation","capacity_mw":675,"source_url":"https://www.enbw.com/unternehmen/themen/kohleausstieg/heizkraftwerk-heilbronn/#fuel-switch","description":null,"source_attributes":{"Projektname":"Heilbronn Gaskraftwerk","Technologie":"CCGT","Kraft-Wärme-Kopplung?":"ja","Geplante Kapazität in Megawatt (MW)":"675","Geplante Inbetriebnahme (Jahr)":"2027","Quelle":"https://www.enbw.com/unternehmen/themen/kohleausstieg/heizkraftwerk-heilbronn/#fuel-switch","Stadt":"Heilbronn","Unternehmen":"EnBW Energie Baden-Württemberg AG"}}},{"type":"Feature","geometry":{"type":"Point","coordinates":[8.59151,50.09045]},"properties":{"id":"gas_plant:msen0lzvmgcczs7:8","name":"Rechenzentrum FRA7 Gaskraftwerk","infra_type":"gas_plant","status":"exploration","capacity_mw":61,"source_url":"https://www.smart-energy.com/industry-sectors/digitalisation/e-on-partners-on-local-power-generation-solutions-for-data-centres/","description":null,"source_attributes":{"Projektname":"Rechenzentrum FRA7 Gaskraftwerk","Technologie":"ICE","Kraft-Wärme-Kopplung?":"ja","Geplante Kapazität in Megawatt (MW)":"61","Geplante Inbetriebnahme (Jahr)":"2029","Quelle":"https://www.smart-energy.com/industry-sectors/digitalisation/e-on-partners-on-local-power-generation-solutions-for-data-centres/","Stadt":"Frankfurt am Main","Unternehmen":"E.ON SE"}}},{"type":"Feature","geometry":{"type":"Point","coordinates":[6.841,50.859]},"properties":{"id":"gas_plant:msen0lzvmgcczs7:9","name":"Knapsack Gaskraftwerk","infra_type":"gas_plant","status":"exploration","capacity_mw":120,"source_url":"https://www.rundschau-online.de/region/rhein-erft/huerth/huerth-rwe-plant-gasmotoren-kraftwerk-auf-dem-knapsacker-huegel-1020195?nocache=1751989837791","description":null,"source_attributes":{"Projektname":"Knapsack Gaskraftwerk","Technologie":"ICE","Kraft-Wärme-Kopplung?":"nein","Geplante Kapazität in Megawatt (MW)":"120","Geplante Inbetriebnahme (Jahr)":"2029","Quelle":"https://www.rundschau-online.de/region/rhein-erft/huerth/huerth-rwe-plant-gasmotoren-kraftwerk-auf-dem-knapsacker-huegel-1020195?nocache=1751989837791","Stadt":"Hürth","Unternehmen":"RWE AG"}}},{"type":"Feature","geometry":{"type":"Point","coordinates":[10.23481,48.43572]},"properties":{"id":"gas_plant:msen0lzvmgcczs7:10","name":"Leipheim 2 Gaskraftwerk","infra_type":"gas_plant","status":"exploration","capacity_mw":350,"source_url":"https://www.br.de/nachrichten/bayern/aiwanger-kritisiert-kraftwerksstrategie-des-bundes,UB3mT0H","description":null,"source_attributes":{"Projektname":"Leipheim 2 Gaskraftwerk","Technologie":"CCGT","Kraft-Wärme-Kopplung?":"unbekannt","Geplante Kapazität in Megawatt (MW)":"350","Geplante Inbetriebnahme (Jahr)":"2030","Quelle":"https://www.br.de/nachrichten/bayern/aiwanger-kritisiert-kraftwerksstrategie-des-bundes,UB3mT0H","Stadt":"Leipheim","Unternehmen":"LEAG Clean Power GmbH, LEAG Holding a.s., EP Energy Transition a.s., EP Investment Sarl, J&T Capital Partners a.s., Tiliacordata Ltd"}}},{"type":"Feature","geometry":{"type":"Point","coordinates":[12.37285,51.18454]},"properties":{"id":"gas_plant:msen0lzvmgcczs7:11","name":"Lippendorf Gaskraftwerk","infra_type":"gas_plant","status":"exploration","capacity_mw":875,"source_url":"https://www.marktstammdatenregister.de/MaStR/Einheit/Detail/IndexOeffentlich/9094259","description":null,"source_attributes":{"Projektname":"Lippendorf Gaskraftwerk","Technologie":"CCGT","Kraft-Wärme-Kopplung?":"ja","Geplante Kapazität in Megawatt (MW)":"875","Geplante Inbetriebnahme (Jahr)":"2029","Quelle":"https://www.marktstammdatenregister.de/MaStR/Einheit/Detail/IndexOeffentlich/9094259","Stadt":"Lippendorf","Unternehmen":"LEAG Clean Power GmbH, LEAG Holding a.s., EP Energy Transition a.s., EP Investment Sarl, J&T Capital Partners a.s., Tiliacordata Ltd"}}},{"type":"Feature","geometry":{"type":"Point","coordinates":[8.65308,50.09856]},"properties":{"id":"gas_plant:msen0lzvmgcczs7:12","name":"HKW Frankfurt West","infra_type":"gas_plant","status":"preparation","capacity_mw":124,"source_url":"https://www.mainova.de/de/ihre-mainova/ueber-uns/waerme-stromversorgung/kohleersatzprojekt-hkw-west","description":null,"source_attributes":{"Projektname":"HKW Frankfurt West","Technologie":"CCGT","Kraft-Wärme-Kopplung?":"ja","Geplante Kapazität in Megawatt (MW)":"124","Geplante Inbetriebnahme (Jahr)":"2026","Quelle":"https://www.mainova.de/de/ihre-mainova/ueber-uns/waerme-stromversorgung/kohleersatzprojekt-hkw-west","Stadt":"Frankfurt","Unternehmen":"Mainova AG"}}},{"type":"Feature","geometry":{"type":"Point","coordinates":[8.2379,50.0264]},"properties":{"id":"gas_plant:msen0lzvmgcczs7:13","name":"Mainz Gaskraftwerk","infra_type":"gas_plant","status":"exploration","capacity_mw":250,"source_url":"https://www.kmw-ag.de/zkw-in-planung/","description":null,"source_attributes":{"Projektname":"Mainz Gaskraftwerk","Technologie":"CCGT","Kraft-Wärme-Kopplung?":"ja","Geplante Kapazität in Megawatt (MW)":"250","Geplante Inbetriebnahme (Jahr)":"2028","Quelle":"https://www.kmw-ag.de/zkw-in-planung/","Stadt":"Mainz","Unternehmen":"Kraftwerke Mainz-Wiesbaden AG, Mainzer Stadtwerke AG, ESWE Versorgungs AG"}}},{"type":"Feature","geometry":{"type":"Point","coordinates":[8.2379,50.0264]},"properties":{"id":"gas_plant:msen0lzvmgcczs7:14","name":"Mainz Gaskraftwerk","infra_type":"gas_plant","status":"exploration","capacity_mw":54,"source_url":"https://www.kmw-ag.de/zukunftsplaene/motorenkraftwerk/","description":null,"source_attributes":{"Projektname":"Mainz Gaskraftwerk","Technologie":"ICE","Kraft-Wärme-Kopplung?":"ja","Geplante Kapazität in Megawatt (MW)":"54","Geplante Inbetriebnahme (Jahr)":"2027","Quelle":"https://www.kmw-ag.de/zukunftsplaene/motorenkraftwerk/","Stadt":"Mainz","Unternehmen":"Kraftwerke Mainz-Wiesbaden AG, Mainzer Stadtwerke AG, ESWE Versorgungs AG"}}},{"type":"Feature","geometry":{"type":"Point","coordinates":[10.09376,52.31511]},"properties":{"id":"gas_plant:msen0lzvmgcczs7:15","name":"Mehrum Gaskraftwerk Block 1","infra_type":"gas_plant","status":"exploration","capacity_mw":1200,"source_url":"https://uvp.niedersachsen.de/trefferanzeige?docuuid=8aa50135-8a84-4107-8510-4ef885430b90&rstart=380&currentSelectorPage=1&f=","description":null,"source_attributes":{"Projektname":"Mehrum Gaskraftwerk Block 1","Technologie":"CCGT","Kraft-Wärme-Kopplung?":"ja","Geplante Kapazität in Megawatt (MW)":"1 200","Geplante Inbetriebnahme (Jahr)":"unbekannt","Quelle":"https://uvp.niedersachsen.de/trefferanzeige?docuuid=8aa50135-8a84-4107-8510-4ef885430b90&rstart=380&currentSelectorPage=1&f=","Stadt":"Hohenhameln","Unternehmen":"Kraftwerk Mehrum GmbH, Energeticky a prumyslovy holding a.s. (EPH), EP Investment Sarl, J&T Capital Partners a.s., Tiliacordata Ltd"}}},{"type":"Feature","geometry":{"type":"Point","coordinates":[7.03056,49.33528]},"properties":{"id":"gas_plant:msen0lzvmgcczs7:16","name":"Quierschied-Weiher Gaskraftwerk","infra_type":"gas_plant","status":"exploration","capacity_mw":600,"source_url":"https://www.iqony.energy/h2-ready-gaskraftwerke","description":null,"source_attributes":{"Projektname":"Quierschied-Weiher Gaskraftwerk","Technologie":"unbekannt","Kraft-Wärme-Kopplung?":"unbekannt","Geplante Kapazität in Megawatt (MW)":"600","Geplante Inbetriebnahme (Jahr)":"unbekannt","Quelle":"https://www.iqony.energy/h2-ready-gaskraftwerke","Stadt":"Quierschied","Unternehmen":"Iqony GmbH, STEAG GmbH, Asterion Industrial Partners SGEIC SA"}}},{"type":"Feature","geometry":{"type":"Point","coordinates":[8.31307,49.01486]},"properties":{"id":"gas_plant:msen0lzvmgcczs7:17","name":"Rheinhafen-Dampfkraftwerk Karlsruhe (RDK) 9","infra_type":"gas_plant","status":"exploration","capacity_mw":850,"source_url":"https://www.enbw.com/unternehmen/themen/kohleausstieg/rheinhafen-dampfkraftwerk-karlsruhe/","description":null,"source_attributes":{"Projektname":"Rheinhafen-Dampfkraftwerk Karlsruhe (RDK) 9","Technologie":"CCGT","Kraft-Wärme-Kopplung?":"ja","Geplante Kapazität in Megawatt (MW)":"850","Geplante Inbetriebnahme (Jahr)":"2030","Quelle":"https://www.enbw.com/unternehmen/themen/kohleausstieg/rheinhafen-dampfkraftwerk-karlsruhe/","Stadt":"Karlsruhe","Unternehmen":"EnBW Energie Baden-Württemberg AG"}}},{"type":"Feature","geometry":{"type":"Point","coordinates":[14.35349,51.53786]},"properties":{"id":"gas_plant:msen0lzvmgcczs7:18","name":"Schwarze Pumpe Gaskraftwerk","infra_type":"gas_plant","status":"exploration","capacity_mw":870,"source_url":"https://www.leag.de/de/news/details/auf-dem-weg-zum-klimaneutralen-energierevier-leag-plant-bau-eines-h2-ready-gaskraftwerks-im-industr/","description":null,"source_attributes":{"Projektname":"Schwarze Pumpe Gaskraftwerk","Technologie":"CCGT","Kraft-Wärme-Kopplung?":"ja","Geplante Kapazität in Megawatt (MW)":"870","Geplante Inbetriebnahme (Jahr)":"2029","Quelle":"https://www.leag.de/de/news/details/auf-dem-weg-zum-klimaneutralen-energierevier-leag-plant-bau-eines-h2-ready-gaskraftwerks-im-industr/","Stadt":"Spremberg","Unternehmen":"LEAG Clean Power GmbH, LEAG Holding a.s., EP Energy Transition a.s., EP Investment Sarl, J&T Capital Partners a.s., Tiliacordata Ltd"}}},{"type":"Feature","geometry":{"type":"Point","coordinates":[8.9668,50.0831]},"properties":{"id":"gas_plant:msen0lzvmgcczs7:19","name":"Staudinger Gaskraftwerk","infra_type":"gas_plant","status":"exploration","capacity_mw":890,"source_url":"https://www.tagesschau.de/inland/regional/hessen/hr-neue-plaene-des-konzerns-uniper-kraftwerk-staudinger-soll-die-energiewende-schaffen-100.html","description":null,"source_attributes":{"Projektname":"Staudinger Gaskraftwerk","Technologie":"CCGT","Kraft-Wärme-Kopplung?":"unbekannt","Geplante Kapazität in Megawatt (MW)":"890","Geplante Inbetriebnahme (Jahr)":"2029","Quelle":"https://www.tagesschau.de/inland/regional/hessen/hr-neue-plaene-des-konzerns-uniper-kraftwerk-staudinger-soll-die-energiewende-schaffen-100.html","Stadt":"Großkrotzenburg","Unternehmen":"Uniper SE"}}},{"type":"Feature","geometry":{"type":"Point","coordinates":[7.93035,51.67419]},"properties":{"id":"gas_plant:msen0lzvmgcczs7:20","name":"Hamm Gaskraftwerk","infra_type":"gas_plant","status":"exploration","capacity_mw":500,"source_url":"https://www.trianel-hamm.de/pressemeldungen/trianel-gaskraftwerk-hamm-soll-um-einen-dritten-wasserstofffaehigen-kraftwerksblock-ergaenzt-werden","description":null,"source_attributes":{"Projektname":"Hamm Gaskraftwerk","Technologie":"CCGT","Kraft-Wärme-Kopplung?":"ja","Geplante Kapazität in Megawatt (MW)":"500","Geplante Inbetriebnahme (Jahr)":"2026","Quelle":"https://www.trianel-hamm.de/pressemeldungen/trianel-gaskraftwerk-hamm-soll-um-einen-dritten-wasserstofffaehigen-kraftwerksblock-ergaenzt-werden","Stadt":"Hamm","Unternehmen":"Trianel Gaskraftwerk Hamm GmbH & Co KG"}}},{"type":"Feature","geometry":{"type":"Point","coordinates":[6.3083,50.84015]},"properties":{"id":"gas_plant:msen0lzvmgcczs7:21","name":"Weisweiler Gaskraftwerk","infra_type":"gas_plant","status":"exploration","capacity_mw":800,"source_url":"https://www.rwe.com/presse/rwe-generation/2023-07-28-rwe-schafft-voraussetzungen-fuer-errichtung-eines-wasserstofffaehigen-gaskraftwerks/","description":null,"source_attributes":{"Projektname":"Weisweiler Gaskraftwerk","Technologie":"CCGT","Kraft-Wärme-Kopplung?":"ja","Geplante Kapazität in Megawatt (MW)":"800","Geplante Inbetriebnahme (Jahr)":"2030","Quelle":"https://www.rwe.com/presse/rwe-generation/2023-07-28-rwe-schafft-voraussetzungen-fuer-errichtung-eines-wasserstofffaehigen-gaskraftwerks/","Stadt":"Eschweiler","Unternehmen":"RWE AG"}}},{"type":"Feature","geometry":{"type":"Point","coordinates":[6.68588,51.579097]},"properties":{"id":"gas_plant:msen0lzvmgcczs7:22","name":"Voerde Gaskraftwerk","infra_type":"gas_plant","status":"exploration","capacity_mw":850,"source_url":"https://www.rwe.com/presse/rwe-generation/2025-10-27-rwe-plant-wasserstofffaehiges-gaskraftwerk-in-voerde/","description":null,"source_attributes":{"Projektname":"Voerde Gaskraftwerk","Technologie":"CCGT","Kraft-Wärme-Kopplung?":"nein","Geplante Kapazität in Megawatt (MW)":"850","Geplante Inbetriebnahme (Jahr)":"2030","Quelle":"https://www.rwe.com/presse/rwe-generation/2025-10-27-rwe-plant-wasserstofffaehiges-gaskraftwerk-in-voerde/","Unternehmen":"RWE AG"}}},{"type":"Feature","geometry":{"type":"Point","coordinates":[7.004609,51.60064]},"properties":{"id":"gas_plant:msen0lzvmgcczs7:23","name":"Scholven 2 Gaskraftwerk","infra_type":"gas_plant","status":"exploration","capacity_mw":870,"source_url":"https://www.uniper.energy/de/unsere-geschaeftstaetigkeiten/new-green-power-gas","description":null,"source_attributes":{"Projektname":"Scholven 2 Gaskraftwerk","Technologie":"CCGT","Kraft-Wärme-Kopplung?":"ja","Geplante Kapazität in Megawatt (MW)":"870","Geplante Inbetriebnahme (Jahr)":"unbekannt","Quelle":"https://www.uniper.energy/de/unsere-geschaeftstaetigkeiten/new-green-power-gas","Unternehmen":"Uniper SE"}}},{"type":"Feature","geometry":{"type":"Point","coordinates":[11.950385,51.398462]},"properties":{"id":"gas_plant:msen0lzvmgcczs7:24","name":"Schkopau Gaskraftwerk","infra_type":"gas_plant","status":"exploration","capacity_mw":900,"source_url":"https://lvwa.sachsen-anhalt.de/das-lvwa/news-details/zukunft-energieversorgung-sachsen-anhalt-zesa-landesverwaltungsamt-erteilt-zulassung-des-vorzeitigen-massnahmebeginns-fuer-gas-und-dampfturbinenkraftwerk-in-schkopau","description":null,"source_attributes":{"Projektname":"Schkopau Gaskraftwerk","Technologie":"CCGT","Kraft-Wärme-Kopplung?":"nein","Geplante Kapazität in Megawatt (MW)":"900","Geplante Inbetriebnahme (Jahr)":"2029","Quelle":"https://lvwa.sachsen-anhalt.de/das-lvwa/news-details/zukunft-energieversorgung-sachsen-anhalt-zesa-landesverwaltungsamt-erteilt-zulassung-des-vorzeitigen-massnahmebeginns-fuer-gas-und-dampfturbinenkraftwerk-in-schkopau","Unternehmen":"Saale Energie GmbH, Energeticky a prumyslovy holding a.s. (EPH), EP Investment Sarl, J&T Capital Partners a.s., Tiliacordata Ltd"}}},{"type":"Feature","geometry":{"type":"Point","coordinates":[6.877067,49.249272]},"properties":{"id":"gas_plant:msen0lzvmgcczs7:25","name":"Fenne/Völklingen Gaskraftwerk","infra_type":"gas_plant","status":"exploration","capacity_mw":150,"source_url":"https://www.sr.de/sr/home/nachrichten/politik_wirtschaft/steag_voelklingen_energieversorgung_gasmotorenwerk_strom_100.html","description":null,"source_attributes":{"Projektname":"Fenne/Völklingen Gaskraftwerk","Technologie":"ICE","Kraft-Wärme-Kopplung?":"ja","Geplante Kapazität in Megawatt (MW)":"150","Geplante Inbetriebnahme (Jahr)":"unbekannt","Quelle":"https://www.sr.de/sr/home/nachrichten/politik_wirtschaft/steag_voelklingen_energieversorgung_gasmotorenwerk_strom_100.html","Unternehmen":"STEAG GmbH, Asterion Industrial Partners SGEIC SA"}}},{"type":"Feature","geometry":{"type":"Point","coordinates":[6.745986,51.39096]},"properties":{"id":"gas_plant:msen0lzvmgcczs7:26","name":"Duisburg-Wanheim Gaskraftwerk","infra_type":"gas_plant","status":"exploration","capacity_mw":67,"source_url":"https://www.stadtwerke-duisburg.de/privatkunden/themen/energiepark-wanheim","description":null,"source_attributes":{"Projektname":"Duisburg-Wanheim Gaskraftwerk","Technologie":"ICE","Kraft-Wärme-Kopplung?":"ja","Geplante Kapazität in Megawatt (MW)":"67","Geplante Inbetriebnahme (Jahr)":"2030","Quelle":"https://www.stadtwerke-duisburg.de/privatkunden/themen/energiepark-wanheim","Unternehmen":"Stadtwerke Duisburg AG, Duisburger Versorgungs- und Verkehrsgesellschaft mbH, RheinEnergie AG"}}},{"type":"Feature","geometry":{"type":"Point","coordinates":[12.822608,48.194083]},"properties":{"id":"gas_plant:msen0lzvmgcczs7:27","name":"Burghausen Gaskraftwerk 1","infra_type":"gas_plant","status":"exploration","capacity_mw":800,"source_url":"https://www.burghausen.com/de/news.html?path=1466/energiekonzern-rwe-will-in-burghausen-zwei-h2-ready-gaskraftwerke-errichten","description":null,"source_attributes":{"Projektname":"Burghausen Gaskraftwerk 1","Technologie":"CCGT","Kraft-Wärme-Kopplung?":"nein","Geplante Kapazität in Megawatt (MW)":"800","Geplante Inbetriebnahme (Jahr)":"unbekannt","Quelle":"https://www.burghausen.com/de/news.html?path=1466/energiekonzern-rwe-will-in-burghausen-zwei-h2-ready-gaskraftwerke-errichten","Unternehmen":"RWE AG"}}},{"type":"Feature","geometry":{"type":"Point","coordinates":[12.822608,48.194083]},"properties":{"id":"gas_plant:msen0lzvmgcczs7:28","name":"Burghausen Gaskraftwerk 2","infra_type":"gas_plant","status":"exploration","capacity_mw":150,"source_url":"https://www.burghausen.com/de/news.html?path=1466/energiekonzern-rwe-will-in-burghausen-zwei-h2-ready-gaskraftwerke-errichten","description":null,"source_attributes":{"Projektname":"Burghausen Gaskraftwerk 2","Technologie":"ICE","Kraft-Wärme-Kopplung?":"nein","Geplante Kapazität in Megawatt (MW)":"150","Geplante Inbetriebnahme (Jahr)":"unbekannt","Quelle":"https://www.burghausen.com/de/news.html?path=1466/energiekonzern-rwe-will-in-burghausen-zwei-h2-ready-gaskraftwerke-errichten","Unternehmen":"RWE AG"}}}]}
